CCSDS_OMM_VERS = 2.0
CREATION_DATE  = 
ORIGINATOR     = 

OBJECT_NAME    = SL-14 R/B
OBJECT_ID      = 1986-046B
CENTER_NAME    = EARTH
REF_FRAME      = TEME
TIME_SYSTEM    = UTC
MEAN_ELEMENT_THEORY = SGP/SGP4

EPOCH          = 2026-03-08T12:39:42.962976
MEAN_MOTION    = 14.85589262
ECCENTRICITY   = .0021889
INCLINATION    = 82.4783
RA_OF_ASC_NODE = 81.2801
ARG_OF_PERICENTER = 229.4222
MEAN_ANOMALY   = 130.5090

EPHEMERIS_TYPE = 0
CLASSIFICATION_TYPE = U
NORAD_CAT_ID   = 16792
ELEMENT_SET_NO = 999
REV_AT_EPOCH   = 12623
BSTAR          = .70289E-4
MEAN_MOTION_DOT = .634E-5
MEAN_MOTION_DDOT = 0

CCSDS_OMM_VERS = 2.0
CREATION_DATE  = 
ORIGINATOR     = 

OBJECT_NAME    = SL-14 R/B
OBJECT_ID      = 1986-055B
CENTER_NAME    = EARTH
REF_FRAME      = TEME
TIME_SYSTEM    = UTC
MEAN_ELEMENT_THEORY = SGP/SGP4

EPOCH          = 2026-03-08T10:42:42.938784
MEAN_MOTION    = 14.85641865
ECCENTRICITY   = .0018284
INCLINATION    = 82.5204
RA_OF_ASC_NODE = 127.8429
ARG_OF_PERICENTER = 340.8175
MEAN_ANOMALY   = 29.6395

EPHEMERIS_TYPE = 0
CLASSIFICATION_TYPE = U
NORAD_CAT_ID   = 16882
ELEMENT_SET_NO = 999
REV_AT_EPOCH   = 11918
BSTAR          = .70685E-4
MEAN_MOTION_DOT = .638E-5
MEAN_MOTION_DDOT = 0

CCSDS_OMM_VERS = 2.0
CREATION_DATE  = 
ORIGINATOR     = 

OBJECT_NAME    = AJISAI (EGS)
OBJECT_ID      = 1986-061A
CENTER_NAME    = EARTH
REF_FRAME      = TEME
TIME_SYSTEM    = UTC
MEAN_ELEMENT_THEORY = SGP/SGP4

EPOCH          = 2026-03-08T12:22:39.879840
MEAN_MOTION    = 12.44515684
ECCENTRICITY   = .0011259
INCLINATION    = 50.0080
RA_OF_ASC_NODE = 96.9578
ARG_OF_PERICENTER = 283.9697
MEAN_ANOMALY   = 167.1061

EPHEMERIS_TYPE = 0
CLASSIFICATION_TYPE = U
NORAD_CAT_ID   = 16908
ELEMENT_SET_NO = 999
REV_AT_EPOCH   = 46785
BSTAR          = .20267E-4
MEAN_MOTION_DOT = -.94E-6
MEAN_MOTION_DDOT = 0

CCSDS_OMM_VERS = 2.0
CREATION_DATE  = 
ORIGINATOR     = 

OBJECT_NAME    = SL-14 R/B
OBJECT_ID      = 1987-024B
CENTER_NAME    = EARTH
REF_FRAME      = TEME
TIME_SYSTEM    = UTC
MEAN_ELEMENT_THEORY = SGP/SGP4

EPOCH          = 2026-03-08T11:51:28.109376
MEAN_MOTION    = 14.86131030
ECCENTRICITY   = .0016674
INCLINATION    = 82.5248
RA_OF_ASC_NODE = 93.8879
ARG_OF_PERICENTER = 264.2671
MEAN_ANOMALY   = 95.6644

EPHEMERIS_TYPE = 0
CLASSIFICATION_TYPE = U
NORAD_CAT_ID   = 17567
ELEMENT_SET_NO = 999
REV_AT_EPOCH   = 8795
BSTAR          = .68029E-4
MEAN_MOTION_DOT = .621E-5
MEAN_MOTION_DDOT = 0

CCSDS_OMM_VERS = 2.0
CREATION_DATE  = 
ORIGINATOR     = 

OBJECT_NAME    = COSMOS 1833
OBJECT_ID      = 1987-027A
CENTER_NAME    = EARTH
REF_FRAME      = TEME
TIME_SYSTEM    = UTC
MEAN_ELEMENT_THEORY = SGP/SGP4

EPOCH          = 2026-03-08T10:40:03.415872
MEAN_MOTION    = 14.13055161
ECCENTRICITY   = .0024328
INCLINATION    = 70.9227
RA_OF_ASC_NODE = 328.6359
ARG_OF_PERICENTER = 216.2746
MEAN_ANOMALY   = 143.6727

EPHEMERIS_TYPE = 0
CLASSIFICATION_TYPE = U
NORAD_CAT_ID   = 17589
ELEMENT_SET_NO = 999
REV_AT_EPOCH   = 1014
BSTAR          = -.58145E-4
MEAN_MOTION_DOT = -.157E-5
MEAN_MOTION_DDOT = 0

CCSDS_OMM_VERS = 2.0
CREATION_DATE  = 
ORIGINATOR     = 

OBJECT_NAME    = SL-16 R/B
OBJECT_ID      = 1987-027B
CENTER_NAME    = EARTH
REF_FRAME      = TEME
TIME_SYSTEM    = UTC
MEAN_ELEMENT_THEORY = SGP/SGP4

EPOCH          = 2026-03-08T06:44:03.516000
MEAN_MOTION    = 14.17165802
ECCENTRICITY   = .0003515
INCLINATION    = 71.0011
RA_OF_ASC_NODE = 279.4648
ARG_OF_PERICENTER = 145.7256
MEAN_ANOMALY   = 214.4095

EPHEMERIS_TYPE = 0
CLASSIFICATION_TYPE = U
NORAD_CAT_ID   = 17590
ELEMENT_SET_NO = 999
REV_AT_EPOCH   = 1514
BSTAR          = .27511E-4
MEAN_MOTION_DOT = .8E-7
MEAN_MOTION_DDOT = 0

CCSDS_OMM_VERS = 2.0
CREATION_DATE  = 
ORIGINATOR     = 

OBJECT_NAME    = SL-14 R/B
OBJECT_ID      = 1987-038B
CENTER_NAME    = EARTH
REF_FRAME      = TEME
TIME_SYSTEM    = UTC
MEAN_ELEMENT_THEORY = SGP/SGP4

EPOCH          = 2026-03-08T03:38:19.008096
MEAN_MOTION    = 14.85367987
ECCENTRICITY   = .0019546
INCLINATION    = 82.5003
RA_OF_ASC_NODE = 298.2570
ARG_OF_PERICENTER = 165.4100
MEAN_ANOMALY   = 194.7685

EPHEMERIS_TYPE = 0
CLASSIFICATION_TYPE = U
NORAD_CAT_ID   = 17912
ELEMENT_SET_NO = 999
REV_AT_EPOCH   = 7900
BSTAR          = .64695E-4
MEAN_MOTION_DOT = .583E-5
MEAN_MOTION_DDOT = 0

CCSDS_OMM_VERS = 2.0
CREATION_DATE  = 
ORIGINATOR     = 

OBJECT_NAME    = COSMOS 1844
OBJECT_ID      = 1987-041A
CENTER_NAME    = EARTH
REF_FRAME      = TEME
TIME_SYSTEM    = UTC
MEAN_ELEMENT_THEORY = SGP/SGP4

EPOCH          = 2026-03-08T08:08:57.050880
MEAN_MOTION    = 14.14552570
ECCENTRICITY   = .0029948
INCLINATION    = 70.8998
RA_OF_ASC_NODE = 37.0223
ARG_OF_PERICENTER = 19.7404
MEAN_ANOMALY   = 340.4869

EPHEMERIS_TYPE = 0
CLASSIFICATION_TYPE = U
NORAD_CAT_ID   = 17973
ELEMENT_SET_NO = 999
REV_AT_EPOCH   = 339
BSTAR          = -.43118E-4
MEAN_MOTION_DOT = -.132E-5
MEAN_MOTION_DDOT = 0

CCSDS_OMM_VERS = 2.0
CREATION_DATE  = 
ORIGINATOR     = 

OBJECT_NAME    = SL-14 R/B
OBJECT_ID      = 1987-055B
CENTER_NAME    = EARTH
REF_FRAME      = TEME
TIME_SYSTEM    = UTC
MEAN_ELEMENT_THEORY = SGP/SGP4

EPOCH          = 2026-03-08T06:19:27.903360
MEAN_MOTION    = 14.85627974
ECCENTRICITY   = .0021277
INCLINATION    = 82.5030
RA_OF_ASC_NODE = 350.3750
ARG_OF_PERICENTER = 22.4304
MEAN_ANOMALY   = 337.7837

EPHEMERIS_TYPE = 0
CLASSIFICATION_TYPE = U
NORAD_CAT_ID   = 18153
ELEMENT_SET_NO = 999
REV_AT_EPOCH   = 6972
BSTAR          = .92715E-4
MEAN_MOTION_DOT = .83E-5
MEAN_MOTION_DDOT = 0

CCSDS_OMM_VERS = 2.0
CREATION_DATE  = 
ORIGINATOR     = 

OBJECT_NAME    = COSMOS 1867
OBJECT_ID      = 1987-060A
CENTER_NAME    = EARTH
REF_FRAME      = TEME
TIME_SYSTEM    = UTC
MEAN_ELEMENT_THEORY = SGP/SGP4

EPOCH          = 2026-03-08T09:26:25.257696
MEAN_MOTION    = 14.31502852
ECCENTRICITY   = .0014474
INCLINATION    = 65.0115
RA_OF_ASC_NODE = 310.3360
ARG_OF_PERICENTER = 278.5967
MEAN_ANOMALY   = 81.3477

EPHEMERIS_TYPE = 0
CLASSIFICATION_TYPE = U
NORAD_CAT_ID   = 18187
ELEMENT_SET_NO = 999
REV_AT_EPOCH   = 1975
BSTAR          = .36846E-4
MEAN_MOTION_DOT = -.2E-7
MEAN_MOTION_DDOT = 0

CCSDS_OMM_VERS = 2.0
CREATION_DATE  = 
ORIGINATOR     = 

OBJECT_NAME    = SL-14 R/B
OBJECT_ID      = 1988-001B
CENTER_NAME    = EARTH
REF_FRAME      = TEME
TIME_SYSTEM    = UTC
MEAN_ELEMENT_THEORY = SGP/SGP4

EPOCH          = 2026-03-08T11:03:32.611968
MEAN_MOTION    = 14.85526614
ECCENTRICITY   = .0016778
INCLINATION    = 82.5151
RA_OF_ASC_NODE = 196.5155
ARG_OF_PERICENTER = 240.0957
MEAN_ANOMALY   = 119.8593

EPHEMERIS_TYPE = 0
CLASSIFICATION_TYPE = U
NORAD_CAT_ID   = 18749
ELEMENT_SET_NO = 999
REV_AT_EPOCH   = 4184
BSTAR          = .95923E-4
MEAN_MOTION_DOT = .854E-5
MEAN_MOTION_DDOT = 0

CCSDS_OMM_VERS = 2.0
CREATION_DATE  = 
ORIGINATOR     = 

OBJECT_NAME    = COSMOS 1933
OBJECT_ID      = 1988-020A
CENTER_NAME    = EARTH
REF_FRAME      = TEME
TIME_SYSTEM    = UTC
MEAN_ELEMENT_THEORY = SGP/SGP4

EPOCH          = 2026-03-08T12:54:13.231296
MEAN_MOTION    = 15.17970083
ECCENTRICITY   = .0003733
INCLINATION    = 82.5097
RA_OF_ASC_NODE = 252.0515
ARG_OF_PERICENTER = 184.7576
MEAN_ANOMALY   = 175.3623

EPHEMERIS_TYPE = 0
CLASSIFICATION_TYPE = U
NORAD_CAT_ID   = 18958
ELEMENT_SET_NO = 999
REV_AT_EPOCH   = 5005
BSTAR          = .29571E-3
MEAN_MOTION_DOT = .6036E-4
MEAN_MOTION_DDOT = 0

