SL-14 R/B               
1 16792U 86046B   26067.52758059  .00000634  00000+0  70289-4 0  9993
2 16792  82.4783  81.2801 0021889 229.4222 130.5090 14.85589262126232
SL-14 R/B               
1 16882U 86055B   26067.44633031  .00000638  00000+0  70685-4 0  9990
2 16882  82.5204 127.8429 0018284 340.8175  29.6395 14.85641865119184
AJISAI (EGS)            
1 16908U 86061A   26067.51573935 -.00000094  00000+0  20267-4 0  9998
2 16908  50.0080  96.9578 0011259 283.9697 167.1061 12.44515684467857
SL-14 R/B               
1 17567U 87024B   26067.49407534  .00000621  00000+0  68029-4 0  9991
2 17567  82.5248  93.8879 0016674 264.2671  95.6644 14.86131030 87953
COSMOS 1833             
1 17589U 87027A   26067.44448398 -.00000157  00000+0 -58145-4 0  9990
2 17589  70.9227 328.6359 0024328 216.2746 143.6727 14.13055161 10145
SL-16 R/B               
1 17590U 87027B   26067.28059625  .00000008  00000+0  27511-4 0  9991
2 17590  71.0011 279.4648 0003515 145.7256 214.4095 14.17165802 15149
SL-14 R/B               
1 17912U 87038B   26067.15160889  .00000583  00000+0  64695-4 0  9994
2 17912  82.5003 298.2570 0019546 165.4100 194.7685 14.85367987 79009
COSMOS 1844             
1 17973U 87041A   26067.33954920 -.00000132  00000+0 -43118-4 0  9991
2 17973  70.8998  37.0223 0029948  19.7404 340.4869 14.14552570  3397
SL-14 R/B               
1 18153U 87055B   26067.26351740  .00000830  00000+0  92715-4 0  9990
2 18153  82.5030 350.3750 0021277  22.4304 337.7837 14.85627974 69720
COSMOS 1867             
1 18187U 87060A   26067.39334789 -.00000002  00000+0  36846-4 0  9996
2 18187  65.0115 310.3360 0014474 278.5967  81.3477 14.31502852 19758
SL-14 R/B               
1 18749U 88001B   26067.46079412  .00000854  00000+0  95923-4 0  9998
2 18749  82.5151 196.5155 0016778 240.0957 119.8593 14.85526614 41846
COSMOS 1933             
1 18958U 88020A   26067.53765314  .00006036  00000+0  29571-3 0  9995
2 18958  82.5097 252.0515 0003733 184.7576 175.3623 15.17970083 50056
